<?xml version="1.0" ?>
<gpx xmlns="http://www.topografix.com/GPX/1/1">
 <trk>
  <name>Silesia 10K RUN - oficjalna trasa</name>
  <trkseg>
   <trkpt lat="50.28651135" lon="18.97384794"/>
   <trkpt lat="50.28649402" lon="18.97394283"/>
   <trkpt lat="50.28649402" lon="18.97394283"/>
   <trkpt lat="50.28628979" lon="18.9742798"/>
   <trkpt lat="50.28628979" lon="18.9742798"/>
   <trkpt lat="50.28624648" lon="18.97509994"/>
   <trkpt lat="50.28624648" lon="18.97509994"/>
   <trkpt lat="50.28567282" lon="18.98007519"/>
   <trkpt lat="50.28567282" lon="18.98007519"/>
   <trkpt lat="50.28560983" lon="18.98027768"/>
   <trkpt lat="50.28560983" lon="18.98027768"/>
   <trkpt lat="50.28588114" lon="18.98070649"/>
   <trkpt lat="50.28588114" lon="18.98070649"/>
   <trkpt lat="50.28606397" lon="18.98113023"/>
   <trkpt lat="50.28606397" lon="18.98113023"/>
   <trkpt lat="50.28654326" lon="18.98237877"/>
   <trkpt lat="50.28654326" lon="18.98237877"/>
   <trkpt lat="50.28658559" lon="18.98244924"/>
   <trkpt lat="50.28658559" lon="18.98244924"/>
   <trkpt lat="50.286658" lon="18.98244966"/>
   <trkpt lat="50.286658" lon="18.98244966"/>
   <trkpt lat="50.28707579" lon="18.98191506"/>
   <trkpt lat="50.28707579" lon="18.98191506"/>
   <trkpt lat="50.2873913" lon="18.98162462"/>
   <trkpt lat="50.2873913" lon="18.98162462"/>
   <trkpt lat="50.28763802" lon="18.98148782"/>
   <trkpt lat="50.28763802" lon="18.98148782"/>
   <trkpt lat="50.28799299" lon="18.98131939"/>
   <trkpt lat="50.28799299" lon="18.98131939"/>
   <trkpt lat="50.28844311" lon="18.98118628"/>
   <trkpt lat="50.28844311" lon="18.98118628"/>
   <trkpt lat="50.28926301" lon="18.98107171"/>
   <trkpt lat="50.28926301" lon="18.98107171"/>
   <trkpt lat="50.29079122" lon="18.98089886"/>
   <trkpt lat="50.29079122" lon="18.98089886"/>
   <trkpt lat="50.29091495" lon="18.98089978"/>
   <trkpt lat="50.29091495" lon="18.98089978"/>
   <trkpt lat="50.29109941" lon="18.98099868"/>
   <trkpt lat="50.29109941" lon="18.98099868"/>
   <trkpt lat="50.2918685" lon="18.98150037"/>
   <trkpt lat="50.2918685" lon="18.98150037"/>
   <trkpt lat="50.29521036" lon="18.9835278"/>
   <trkpt lat="50.29521036" lon="18.9835278"/>
   <trkpt lat="50.29551304" lon="18.98366127"/>
   <trkpt lat="50.29551304" lon="18.98366127"/>
   <trkpt lat="50.29578659" lon="18.98363678"/>
   <trkpt lat="50.29578659" lon="18.98363678"/>
   <trkpt lat="50.29677833" lon="18.98291598"/>
   <trkpt lat="50.29677833" lon="18.98291598"/>
   <trkpt lat="50.29685469" lon="18.98289808"/>
   <trkpt lat="50.29685469" lon="18.98289808"/>
   <trkpt lat="50.29690162" lon="18.98293236"/>
   <trkpt lat="50.29690162" lon="18.98293236"/>
   <trkpt lat="50.29691468" lon="18.98299249"/>
   <trkpt lat="50.29691468" lon="18.98299249"/>
   <trkpt lat="50.29730342" lon="18.98576331"/>
   <trkpt lat="50.29730342" lon="18.98576331"/>
   <trkpt lat="50.29730316" lon="18.98602538"/>
   <trkpt lat="50.29730316" lon="18.98602538"/>
   <trkpt lat="50.297279" lon="18.98625412"/>
   <trkpt lat="50.297279" lon="18.98625412"/>
   <trkpt lat="50.29721024" lon="18.98657155"/>
   <trkpt lat="50.29721024" lon="18.98657155"/>
   <trkpt lat="50.29713216" lon="18.98678499"/>
   <trkpt lat="50.29713216" lon="18.98678499"/>
   <trkpt lat="50.29692356" lon="18.98712066"/>
   <trkpt lat="50.29692356" lon="18.98712066"/>
   <trkpt lat="50.29560653" lon="18.98885479"/>
   <trkpt lat="50.29560653" lon="18.98885479"/>
   <trkpt lat="50.29545866" lon="18.9890866"/>
   <trkpt lat="50.29545866" lon="18.9890866"/>
   <trkpt lat="50.2952976" lon="18.98951045"/>
   <trkpt lat="50.2952976" lon="18.98951045"/>
   <trkpt lat="50.29520873" lon="18.98986701"/>
   <trkpt lat="50.29520873" lon="18.98986701"/>
   <trkpt lat="50.29517955" lon="18.99008076"/>
   <trkpt lat="50.29517955" lon="18.99008076"/>
   <trkpt lat="50.29501391" lon="18.99333794"/>
   <trkpt lat="50.29501391" lon="18.99333794"/>
   <trkpt lat="50.29484006" lon="18.99450526"/>
   <trkpt lat="50.29484006" lon="18.99450526"/>
   <trkpt lat="50.29520847" lon="18.99665384"/>
   <trkpt lat="50.29520847" lon="18.99665384"/>
   <trkpt lat="50.29516431" lon="18.99758893"/>
   <trkpt lat="50.29516431" lon="18.99758893"/>
   <trkpt lat="50.29512833" lon="18.99777746"/>
   <trkpt lat="50.29512833" lon="18.99777746"/>
   <trkpt lat="50.29507827" lon="18.99789657"/>
   <trkpt lat="50.29507827" lon="18.99789657"/>
   <trkpt lat="50.29497296" lon="18.99802087"/>
   <trkpt lat="50.29497296" lon="18.99802087"/>
   <trkpt lat="50.29297457" lon="18.9984306"/>
   <trkpt lat="50.29297457" lon="18.9984306"/>
   <trkpt lat="50.29274222" lon="18.998496"/>
   <trkpt lat="50.29274222" lon="18.998496"/>
   <trkpt lat="50.29259927" lon="18.99866318"/>
   <trkpt lat="50.29259927" lon="18.99866318"/>
   <trkpt lat="50.29226363" lon="18.9991858"/>
   <trkpt lat="50.29226363" lon="18.9991858"/>
   <trkpt lat="50.29221529" lon="18.99921909"/>
   <trkpt lat="50.29221529" lon="18.99921909"/>
   <trkpt lat="50.29217663" lon="18.99921909"/>
   <trkpt lat="50.29217663" lon="18.99921909"/>
   <trkpt lat="50.29171652" lon="18.99853427"/>
   <trkpt lat="50.29171652" lon="18.99853427"/>
   <trkpt lat="50.29166028" lon="18.99851894"/>
   <trkpt lat="50.29166028" lon="18.99851894"/>
   <trkpt lat="50.29134401" lon="18.99880038"/>
   <trkpt lat="50.29134401" lon="18.99880038"/>
   <trkpt lat="50.29109244" lon="18.99891004"/>
   <trkpt lat="50.29109244" lon="18.99891004"/>
   <trkpt lat="50.29081699" lon="18.99893669"/>
   <trkpt lat="50.29081699" lon="18.99893669"/>
   <trkpt lat="50.29044096" lon="18.99881874"/>
   <trkpt lat="50.29044096" lon="18.99881874"/>
   <trkpt lat="50.2887929" lon="18.99769853"/>
   <trkpt lat="50.2887929" lon="18.99769853"/>
   <trkpt lat="50.28835768" lon="18.99752034"/>
   <trkpt lat="50.28835768" lon="18.99752034"/>
   <trkpt lat="50.28813072" lon="18.99752034"/>
   <trkpt lat="50.28813072" lon="18.99752034"/>
   <trkpt lat="50.28800538" lon="18.99753643"/>
   <trkpt lat="50.28800538" lon="18.99753643"/>
   <trkpt lat="50.28786071" lon="18.99767639"/>
   <trkpt lat="50.28786071" lon="18.99767639"/>
   <trkpt lat="50.28721658" lon="18.99858981"/>
   <trkpt lat="50.28721658" lon="18.99858981"/>
   <trkpt lat="50.28703122" lon="18.99879884"/>
   <trkpt lat="50.28703122" lon="18.99879884"/>
   <trkpt lat="50.28676168" lon="18.99898441"/>
   <trkpt lat="50.28676168" lon="18.99898441"/>
   <trkpt lat="50.28640189" lon="18.99911867"/>
   <trkpt lat="50.28640189" lon="18.99911867"/>
   <trkpt lat="50.28560326" lon="18.99925432"/>
   <trkpt lat="50.28560326" lon="18.99925432"/>
   <trkpt lat="50.28504766" lon="18.99942823"/>
   <trkpt lat="50.28504766" lon="18.99942823"/>
   <trkpt lat="50.28294799" lon="19.00090187"/>
   <trkpt lat="50.28294799" lon="19.00090187"/>
   <trkpt lat="50.28280145" lon="19.00091981"/>
   <trkpt lat="50.28280145" lon="19.00091981"/>
   <trkpt lat="50.2826453" lon="19.00090015"/>
   <trkpt lat="50.2826453" lon="19.00090015"/>
   <trkpt lat="50.28255846" lon="19.0008545"/>
   <trkpt lat="50.28255846" lon="19.0008545"/>
   <trkpt lat="50.27821715" lon="18.99418907"/>
   <trkpt lat="50.27821715" lon="18.99418907"/>
   <trkpt lat="50.27802568" lon="18.99403934"/>
   <trkpt lat="50.27802568" lon="18.99403934"/>
   <trkpt lat="50.27796226" lon="18.99392843"/>
   <trkpt lat="50.27796226" lon="18.99392843"/>
   <trkpt lat="50.27793818" lon="18.9935664"/>
   <trkpt lat="50.27793818" lon="18.9935664"/>
   <trkpt lat="50.28003942" lon="18.99022335"/>
   <trkpt lat="50.28003942" lon="18.99022335"/>
   <trkpt lat="50.28004733" lon="18.99009582"/>
   <trkpt lat="50.28004733" lon="18.99009582"/>
   <trkpt lat="50.27972501" lon="18.98955746"/>
   <trkpt lat="50.27972501" lon="18.98955746"/>
   <trkpt lat="50.27964661" lon="18.98949097"/>
   <trkpt lat="50.27964661" lon="18.98949097"/>
   <trkpt lat="50.27734112" lon="18.98593278"/>
   <trkpt lat="50.27734112" lon="18.98593278"/>
   <trkpt lat="50.27718479" lon="18.98573032"/>
   <trkpt lat="50.27718479" lon="18.98573032"/>
   <trkpt lat="50.27716236" lon="18.98565303"/>
   <trkpt lat="50.27716236" lon="18.98565303"/>
   <trkpt lat="50.27719337" lon="18.98552113"/>
   <trkpt lat="50.27719337" lon="18.98552113"/>
   <trkpt lat="50.27725676" lon="18.98553583"/>
   <trkpt lat="50.27725676" lon="18.98553583"/>
   <trkpt lat="50.27807594" lon="18.98680472"/>
   <trkpt lat="50.27807594" lon="18.98680472"/>
   <trkpt lat="50.27816057" lon="18.98675799"/>
   <trkpt lat="50.27816057" lon="18.98675799"/>
   <trkpt lat="50.2782468" lon="18.98675284"/>
   <trkpt lat="50.2782468" lon="18.98675284"/>
   <trkpt lat="50.27834038" lon="18.98680055"/>
   <trkpt lat="50.27834038" lon="18.98680055"/>
   <trkpt lat="50.2784197" lon="18.9867719"/>
   <trkpt lat="50.2784197" lon="18.9867719"/>
   <trkpt lat="50.28053811" lon="18.98352216"/>
   <trkpt lat="50.28053811" lon="18.98352216"/>
   <trkpt lat="50.28236801" lon="18.986396"/>
   <trkpt lat="50.28236801" lon="18.986396"/>
   <trkpt lat="50.28240896" lon="18.98637852"/>
   <trkpt lat="50.28240896" lon="18.98637852"/>
   <trkpt lat="50.28299645" lon="18.98538673"/>
   <trkpt lat="50.28299645" lon="18.98538673"/>
   <trkpt lat="50.28319331" lon="18.98493285"/>
   <trkpt lat="50.28319331" lon="18.98493285"/>
   <trkpt lat="50.28317594" lon="18.98478699"/>
   <trkpt lat="50.28317594" lon="18.98478699"/>
   <trkpt lat="50.28208931" lon="18.98309107"/>
   <trkpt lat="50.28208931" lon="18.98309107"/>
   <trkpt lat="50.2818682" lon="18.98264557"/>
   <trkpt lat="50.2818682" lon="18.98264557"/>
   <trkpt lat="50.28171602" lon="18.98225117"/>
   <trkpt lat="50.28171602" lon="18.98225117"/>
   <trkpt lat="50.28161582" lon="18.98177471"/>
   <trkpt lat="50.28161582" lon="18.98177471"/>
   <trkpt lat="50.28157254" lon="18.98125551"/>
   <trkpt lat="50.28157254" lon="18.98125551"/>
   <trkpt lat="50.28157976" lon="18.98054766"/>
   <trkpt lat="50.28157976" lon="18.98054766"/>
   <trkpt lat="50.2816354" lon="18.98011924"/>
   <trkpt lat="50.2816354" lon="18.98011924"/>
   <trkpt lat="50.28178171" lon="18.97966454"/>
   <trkpt lat="50.28178171" lon="18.97966454"/>
   <trkpt lat="50.2820722" lon="18.97906702"/>
   <trkpt lat="50.2820722" lon="18.97906702"/>
   <trkpt lat="50.28211138" lon="18.97908746"/>
   <trkpt lat="50.28211138" lon="18.97908746"/>
   <trkpt lat="50.28309671" lon="18.98225666"/>
   <trkpt lat="50.28309671" lon="18.98225666"/>
   <trkpt lat="50.28358971" lon="18.9838708"/>
   <trkpt lat="50.28358971" lon="18.9838708"/>
   <trkpt lat="50.28362236" lon="18.98386876"/>
   <trkpt lat="50.28362236" lon="18.98386876"/>
   <trkpt lat="50.28412448" lon="18.98265836"/>
   <trkpt lat="50.28412448" lon="18.98265836"/>
   <trkpt lat="50.28432424" lon="18.98226106"/>
   <trkpt lat="50.28432424" lon="18.98226106"/>
   <trkpt lat="50.28555229" lon="18.98033611"/>
   <trkpt lat="50.28555229" lon="18.98033611"/>
   <trkpt lat="50.28558875" lon="18.98033903"/>
   <trkpt lat="50.28558875" lon="18.98033903"/>
   <trkpt lat="50.28563925" lon="18.98037382"/>
   <trkpt lat="50.28563925" lon="18.98037382"/>
   <trkpt lat="50.28586561" lon="18.98072268"/>
   <trkpt lat="50.28586561" lon="18.98072268"/>
   <trkpt lat="50.28604709" lon="18.98115337"/>
   <trkpt lat="50.28604709" lon="18.98115337"/>
   <trkpt lat="50.28655033" lon="18.98244194"/>
   <trkpt lat="50.28655033" lon="18.98244194"/>
   <trkpt lat="50.286598" lon="18.98248568"/>
   <trkpt lat="50.286598" lon="18.98248568"/>
   <trkpt lat="50.28667937" lon="18.98247153"/>
   <trkpt lat="50.28667937" lon="18.98247153"/>
   <trkpt lat="50.28708464" lon="18.98194277"/>
   <trkpt lat="50.28708464" lon="18.98194277"/>
   <trkpt lat="50.28739573" lon="18.98165752"/>
   <trkpt lat="50.28739573" lon="18.98165752"/>
   <trkpt lat="50.28764007" lon="18.98152198"/>
   <trkpt lat="50.28764007" lon="18.98152198"/>
   <trkpt lat="50.28799853" lon="18.98135402"/>
   <trkpt lat="50.28799853" lon="18.98135402"/>
   <trkpt lat="50.28844422" lon="18.98121572"/>
   <trkpt lat="50.28844422" lon="18.98121572"/>
   <trkpt lat="50.29092686" lon="18.98083888"/>
   <trkpt lat="50.29092686" lon="18.98083888"/>
   <trkpt lat="50.29095871" lon="18.98078995"/>
   <trkpt lat="50.29095871" lon="18.98078995"/>
   <trkpt lat="50.29055374" lon="18.97333539"/>
   <trkpt lat="50.29055374" lon="18.97333539"/>
   <trkpt lat="50.29051829" lon="18.97321054"/>
   <trkpt lat="50.29051829" lon="18.97321054"/>
   <trkpt lat="50.29034572" lon="18.97288885"/>
   <trkpt lat="50.29034572" lon="18.97288885"/>
   <trkpt lat="50.29021829" lon="18.97285204"/>
   <trkpt lat="50.29021829" lon="18.97285204"/>
   <trkpt lat="50.28899324" lon="18.97316813"/>
   <trkpt lat="50.28899324" lon="18.97316813"/>
   <trkpt lat="50.28878263" lon="18.9729217"/>
   <trkpt lat="50.28878263" lon="18.9729217"/>
   <trkpt lat="50.2886765" lon="18.97285357"/>
   <trkpt lat="50.2886765" lon="18.97285357"/>
   <trkpt lat="50.28857027" lon="18.97284789"/>
   <trkpt lat="50.28857027" lon="18.97284789"/>
   <trkpt lat="50.2879984" lon="18.97305353"/>
   <trkpt lat="50.2879984" lon="18.97305353"/>
   <trkpt lat="50.2877602" lon="18.97314414"/>
   <trkpt lat="50.2877602" lon="18.97314414"/>
   <trkpt lat="50.28766123" lon="18.97322798"/>
   <trkpt lat="50.28766123" lon="18.97322798"/>
   <trkpt lat="50.28758496" lon="18.97336298"/>
   <trkpt lat="50.28758496" lon="18.97336298"/>
   <trkpt lat="50.28754229" lon="18.97353351"/>
   <trkpt lat="50.28754229" lon="18.97353351"/>
   <trkpt lat="50.28754825" lon="18.97375332"/>
   <trkpt lat="50.28754825" lon="18.97375332"/>
   <trkpt lat="50.28759976" lon="18.9739394"/>
   <trkpt lat="50.28759976" lon="18.9739394"/>
   <trkpt lat="50.28768491" lon="18.97406467"/>
   <trkpt lat="50.28768491" lon="18.97406467"/>
   <trkpt lat="50.28778614" lon="18.97415448"/>
   <trkpt lat="50.28778614" lon="18.97415448"/>
   <trkpt lat="50.28789283" lon="18.97416393"/>
   <trkpt lat="50.28789283" lon="18.97416393"/>
   <trkpt lat="50.28832361" lon="18.97401901"/>
  </trkseg>
 </trk>
</gpx>
